NORAD_CAT_ID,OBJECT_NAME,OBJECT_TYPE,EPOCH,MEAN_MOTION,ECCENTRICITY,INCLINATION,RA_OF_ASC_NODE,ARG_OF_PERICENTER,MEAN_ANOMALY,BSTAR,MEAN_MOTION_DOT,MEAN_MOTION_DDOT,TLE_LINE0,TLE_LINE1,TLE_LINE2,SEMIMAJOR_AXIS,PERIOD,APOGEE,PERIGEE,DECAYED
55660.0,STARLINK-5467,PAYLOAD,2023-06-10 12:04:25,15.69924924,0.0003433,69.9972,192.9788,264.7104,95.37,8.7573e-06,8.4e-06,0.0,0 STARLINK-5467,1 55660U 23021AJ  23161.50307131  .00000840  00000-0  87573-5 0  9990,2 55660  69.9972 192.9788 0003433 264.7104  95.3700 15.69924924 18540,6737.249,91.724,361.427,356.801,0.0
55660.0,STARLINK-5467,PAYLOAD,2023-06-10 13:36:10,15.69924586,0.000337,69.9973,192.7998,262.5432,97.538,4.5867e-06,3.39e-06,0.0,0 STARLINK-5467,1 55660U 23021AJ  23161.56678943  .00000339  00000-0  45867-5 0  9991,2 55660  69.9973 192.7998 0003370 262.5432  97.5380 15.69924586 18252,6737.25,91.724,361.385,356.844,0.0
55660.0,STARLINK-5467,PAYLOAD,2023-06-11 07:57:12,15.69919988,0.0003535,69.9961,190.6486,263.2597,96.8196,6.7808e-06,6.02e-06,0.0,0 STARLINK-5467,1 55660U 23021AJ  23162.33139187  .00000602  00000-0  67808-5 0  9991,2 55660  69.9961 190.6486 0003535 263.2597  96.8196 15.69919988 18674,6737.263,91.724,361.51,356.746,0.0
55660.0,STARLINK-5467,PAYLOAD,2023-06-11 11:00:42,15.69918829,0.0003228,69.998,190.292,263.6713,96.4115,9.7943e-06,9.65e-06,0.0,0 STARLINK-5467,1 55660U 23021AJ  23162.45882617  .00000965  00000-0  97943-5 0  9992,2 55660  69.9980 190.2920 0003228 263.6713  96.4115 15.69918829 18699,6737.266,91.724,361.306,356.956,0.0
55660.0,STARLINK-5467,PAYLOAD,2023-06-12 11:28:44,15.6991925,0.0003513,69.9971,187.4266,273.9017,86.1777,7.393e-06,6.76e-06,0.0,0 STARLINK-5467,1 55660U 23021AJ  23163.47829339  .00000676  00000-0  73930-5 0  9996,2 55660  69.9971 187.4266 0003513 273.9017  86.1777 15.69919250 18855,6737.265,91.724,361.497,356.763,0.0
55660.0,STARLINK-5467,PAYLOAD,2023-06-12 19:07:30,15.69920496,0.00033,69.9978,186.5314,266.4682,93.6137,-4.9797e-06,-8.11e-06,0.0,0 STARLINK-5467,1 55660U 23021AJ  23163.79688015 -.00000811  00000-0 -49797-5 0  9992,2 55660  69.9978 186.5314 0003300 266.4682  93.6137 15.69920496 18605,6737.261,91.724,361.35,356.903,0.0
55660.0,STARLINK-5467,PAYLOAD,2023-06-13 11:56:46,15.6992862,0.0002364,69.9985,184.5619,278.7789,81.3139,7.7213e-06,7.16e-06,0.0,0 STARLINK-5467,1 55660U 23021AJ  23164.49775976  .00000716  00000-0  77213-5 0  9999,2 55660  69.9985 184.5619 0002364 278.7789  81.3139 15.69928620 18717,6737.238,91.724,360.696,357.511,0.0
55660.0,STARLINK-5467,PAYLOAD,2023-06-14 01:42:32,15.69918718,0.0002851,69.9985,182.9481,266.825,93.2619,1.2767e-05,1.322e-05,0.0,0 STARLINK-5467,1 55660U 23021AJ  23165.07121088  .00001322  00000-0  12767-4 0  9999,2 55660  69.9985 182.9481 0002851 266.8250  93.2619 15.69918718 18800,6737.267,91.724,361.052,357.211,0.0
55660.0,STARLINK-5467,PAYLOAD,2023-06-14 18:31:49,15.69910761,0.0003211,69.9979,180.9778,277.4891,82.594,1.4386e-05,1.516e-05,0.0,0 STARLINK-5467,1 55660U 23021AJ  23165.77210237  .00001516  00000-0  14386-4 0  9995,2 55660  69.9979 180.9778 0003211 277.4891  82.5940 15.69910761 18910,6737.289,91.725,361.318,356.991,0.0
55660.0,STARLINK-5467,PAYLOAD,2023-06-15 02:10:34,15.69923582,0.0003397,69.998,180.082,272.804,87.2767,-4.2995e-06,-7.3e-06,0.0,0 STARLINK-5467,1 55660U 23021AJ  23166.09068238 -.00000730  00000-0 -42995-5 0  9990,2 55660  69.9980 180.0820 0003397 272.8040  87.2767 15.69923582 18960,6737.253,91.724,361.406,356.829,0.0
55660.0,STARLINK-5467,PAYLOAD,2023-06-15 09:49:19,15.69931566,0.0003444,69.9975,179.1864,274.2439,85.8363,3.6415e-06,2.25e-06,0.0,0 STARLINK-5467,1 55660U 23021AJ  23166.40925783  .00000225  00000-0  36415-5 0  9999,2 55660  69.9975 179.1864 0003444 274.2439  85.8363 15.69931566 19016,6737.23,91.724,361.415,356.774,0.0
55660.0,STARLINK-5467,PAYLOAD,2023-06-16 10:17:21,15.69936183,0.0003062,69.9962,176.3167,263.2553,96.8294,1.5714e-05,1.678e-05,0.0,0 STARLINK-5467,1 55660U 23021AJ  23167.42871716  .00001678  00000-0  15714-4 0  9999,2 55660  69.9962 176.3167 0003062 263.2553  96.8294 15.69936183 19170,6737.217,91.723,361.145,357.019,0.0
55660.0,STARLINK-5467,PAYLOAD,2023-06-16 17:56:08,15.69915549,0.0003352,69.9978,175.424,271.1919,88.8892,-7.4447e-06,-1.107e-05,0.0,0 STARLINK-5467,1 55660U 23021AJ  23167.74731981 -.00001107  00000-0 -74447-5 0  9991,2 55660  69.9978 175.4240 0003352 271.1919  88.8892 15.69915549 19522,6737.276,91.725,361.399,356.882,0.0
55660.0,STARLINK-5467,PAYLOAD,2023-06-17 00:03:09,15.69910213,0.0002936,69.9984,174.7081,272.6595,87.4265,-1.2956e-05,-1.769e-05,0.0,0 STARLINK-5467,1 55660U 23021AJ  23168.00219404 -.00001769  00000-0 -12956-4 0  9992,2 55660  69.9984 174.7081 0002936 272.6595  87.4265 15.69910213 19260,6737.291,91.725,361.134,357.178,0.0
55660.0,STARLINK-5467,PAYLOAD,2023-06-17 10:45:25,15.69914882,0.0002928,69.9985,173.4543,267.8865,92.1996,-5.4363e-06,-8.66e-06,0.0,0 STARLINK-5467,1 55660U 23021AJ  23168.44820770 -.00000866  00000-0 -54363-5 0  9990,2 55660  69.9985 173.4543 0002928 267.8865  92.1996 15.69914882 19638,6737.278,91.725,361.115,357.17,0.0
55660.0,STARLINK-5467,PAYLOAD,2023-06-18 06:38:10,15.69929758,0.000338,69.9977,171.1256,269.1075,90.9733,1.126e-05,1.142e-05,0.0,0 STARLINK-5467,1 55660U 23021AJ  23169.27651028  .00001142  00000-0  11260-4 0  9994,2 55660  69.9977 171.1256 0003380 269.1075  90.9733 15.69929758 19460,6737.235,91.724,361.377,356.823,0.0
55660.0,STARLINK-5467,PAYLOAD,2023-06-18 09:41:40,15.69930955,0.0003475,69.9975,170.7671,269.0625,91.0172,6.9495e-06,6.23e-06,0.0,0 STARLINK-5467,1 55660U 23021AJ  23169.40394375  .00000623  00000-0  69495-5 0  9995,2 55660  69.9975 170.7671 0003475 269.0625  91.0172 15.69930955 19784,6737.232,91.724,361.438,356.755,0.0
55660.0,STARLINK-5467,PAYLOAD,2023-06-18 23:27:27,15.69911093,0.0003325,69.9976,169.1533,264.9543,95.1273,1.7533e-05,1.895e-05,0.0,0 STARLINK-5467,1 55660U 23021AJ  23169.97740394  .00001895  00000-0  17533-4 0  9990,2 55660  69.9976 169.1533 0003325 264.9543  95.1273 15.69911093 19577,6737.288,91.725,361.394,356.913,0.0
55660.0,STARLINK-5467,PAYLOAD,2023-06-19 10:09:43,15.69920159,0.0003284,69.9977,167.8999,263.8839,96.1983,1.6264e-05,1.743e-05,0.0,0 STARLINK-5467,1 55660U 23021AJ  23170.42341749  .00001743  00000-0  16264-4 0  9995,2 55660  69.9977 167.8999 0003284 263.8839  96.1983 15.69920159 19649,6737.262,91.724,361.34,356.915,0.0
55660.0,STARLINK-5467,PAYLOAD,2023-06-20 09:05:59,15.69930674,0.0003332,69.9978,165.2136,263.7393,96.3423,1.721e-06,-6e-08,0.0,0 STARLINK-5467,1 55660U 23021AJ  23171.37916383 -.00000006  00000-0  17210-5 0  9997,2 55660  69.9978 165.2136 0003332 263.7393  96.3423 15.69930674 20098,6737.232,91.724,361.342,356.852,0.0
55660.0,STARLINK-5467,PAYLOAD,2023-06-21 01:55:16,15.69923483,0.0003228,69.9983,163.2431,262.2581,97.8249,-2.8359e-06,-5.54e-06,0.0,0 STARLINK-5467,1 55660U 23021AJ  23172.08005415 -.00000554  00000-0 -28359-5 0  9996,2 55660  69.9983 163.2431 0003228 262.2581  97.8249 15.69923483 19907,6737.253,91.724,361.293,356.943,0.0
55660.0,STARLINK-5467,PAYLOAD,2023-06-21 09:34:02,15.69927276,0.0003396,69.998,162.3474,267.1736,92.9071,2.0965e-06,3.9e-07,0.0,0 STARLINK-5467,1 55660U 23021AJ  23172.39863445  .00000039  00000-0  20965-5 0  9996,2 55660  69.9980 162.3474 0003396 267.1736  92.9071 15.69927276 20256,6737.242,91.724,361.395,356.819,0.0
55660.0,STARLINK-5467,PAYLOAD,2023-06-22 02:23:18,15.6991639,0.0003726,69.9969,160.3765,269.4886,90.5883,1.3608e-05,1.423e-05,0.0,0 STARLINK-5467,1 55660U 23021AJ  23173.09952218  .00001423  00000-0  13608-4 0  9994,2 55660  69.9969 160.3765 0003726 269.4886  90.5883 15.69916390 20061,6737.273,91.725,361.649,356.628,0.0
55660.0,STARLINK-5467,PAYLOAD,2023-06-23 01:19:35,15.69926022,0.0003328,69.9976,157.6897,261.4469,98.635,4.6425e-06,3.45e-06,0.0,0 STARLINK-5467,1 55660U 23021AJ  23174.05527045  .00000345  00000-0  46425-5 0  9993,2 55660  69.9976 157.6897 0003328 261.4469  98.6350 15.69926022 20219,6737.246,91.724,361.353,356.868,0.0
55660.0,STARLINK-5467,PAYLOAD,2023-06-23 16:37:07,15.69916645,0.0003367,69.9963,155.8976,262.4568,97.6245,2.4843e-06,8.6e-07,0.0,0 STARLINK-5467,1 55660U 23021AJ  23174.69244345  .00000086  00000-0  24843-5 0  9994,2 55660  69.9963 155.8976 0003367 262.4568  97.6245 15.69916645 20310,6737.272,91.725,361.406,356.869,0.0
55660.0,STARLINK-5467,PAYLOAD,2023-06-24 01:47:37,15.69924157,0.0003392,69.9971,154.8227,264.6802,95.4007,9.2383e-06,8.98e-06,0.0,0 STARLINK-5467,1 55660U 23021AJ  23175.07473802  .00000898  00000-0  92383-5 0  9994,2 55660  69.9971 154.8227 0003392 264.6802  95.4007 15.69924157 20375,6737.251,91.724,361.401,356.831,0.0
55660.0,STARLINK-5467,PAYLOAD,2023-06-24 15:33:24,15.6991858,0.0002815,69.9973,153.2114,270.4742,89.6131,1.9869e-06,2.6e-07,0.0,0 STARLINK-5467,1 55660U 23021AJ  23175.64819607  .00000026  00000-0  19869-5 0  9995,2 55660  69.9973 153.2114 0002815 270.4742  89.6131 15.69918580 20468,6737.267,91.725,361.028,357.235,0.0
55660.0,STARLINK-5467,PAYLOAD,2023-06-25 02:15:39,15.69923902,0.0003533,69.9969,151.9576,264.5706,95.5087,1.1685e-05,1.192e-05,0.0,0 STARLINK-5467,1 55660U 23021AJ  23176.09420587  .00001192  00000-0  11685-4 0  9992,2 55660  69.9969 151.9576 0003533 264.5706  95.5087 15.69923902 20530,6737.252,91.724,361.497,356.736,0.0
55660.0,STARLINK-5467,PAYLOAD,2023-06-26 01:11:56,15.6991777,0.0003289,69.9977,149.2704,263.2217,96.8605,-2.3899e-06,-5e-06,0.0,0 STARLINK-5467,1 55660U 23021AJ  23177.04996505 -.00000500  00000-0 -23899-5 0  9991,2 55660  69.9977 149.2704 0003289 263.2217  96.8605 15.69917770 20685,6737.269,91.725,361.35,356.918,0.0
55660.0,STARLINK-5467,PAYLOAD,2023-06-26 07:18:56,15.69928209,0.0003304,69.9975,148.5527,258.7911,101.2913,9.2397e-06,8.99e-06,0.0,0 STARLINK-5467,1 55660U 23021AJ  23177.30482345  .00000899  00000-0  92397-5 0  9990,2 55660  69.9975 148.5527 0003304 258.7911 101.2913 15.69928209 20723,6737.239,91.724,361.33,356.878,0.0
